SUPERVIEW-1 03          
1 43099U 18002A   26063.84463373  .00025076  00000+0  69368-3 0  9995
2 43099  97.3176 149.0953 0050867 195.1336 164.8390 15.35667359452333
CARTOSAT-2F             
1 43111U 18004A   26063.81419583  .00005945  00000+0  28561-3 0  9996
2 43111  97.4172 125.0615 0000506 251.3316 108.7864 15.19206158451488
LKW-3                   
1 43146U 18006A   26063.82660520  .00019725  00000+0  62194-3 0  9997
2 43146  97.6468 220.5722 0002467 332.9983  27.1129 15.32921342452719
ASNARO-2                
1 43152U 18007A   26063.81075201  .00012960  00000+0  56298-3 0  9992
2 43152  97.4021  72.3379 0001766  91.6387 268.5052 15.22427749451534
JILIN-1 07              
1 43159U 18008E   26063.77673838  .00012202  00000+0  38601-3 0  9992
2 43159  97.1871  86.5695 0010520  77.8090 282.4330 15.32860133448993
JILIN-1 08              
1 43160U 18008F   26063.78345831  .00012253  00000+0  39729-3 0  9992
2 43160  97.1897  85.9855 0008269  90.0620 270.1570 15.32089655448955
LEMUR-2-KADI            
1 43184U 18014E   26063.29293304  .00129411  00000+0  14120-2 0  9990
2 43184  97.4717 347.6548 0000910  54.9438 305.1905 15.62943807444546
S-NET D                 
1 43186U 18014G   26063.26059905  .00009708  00000+0  51471-3 0  9993
2 43186  97.5446 328.7457 0009427  32.5537 327.6275 15.15543403442869
S-NET B                 
1 43187U 18014H   26063.27005787  .00010011  00000+0  53100-3 0  9994
2 43187  97.5454 328.7383 0009893  27.5757 332.5999 15.15515870442867
S-NET A                 
1 43188U 18014J   26063.25996993  .00009592  00000+0  50848-3 0  9999
2 43188  97.5464 328.9181 0009847  28.6783 331.4989 15.15549843442861
S-NET C                 
1 43189U 18014K   26063.66953447  .00009109  00000+0  48343-3 0  9993
2 43189  97.5477 329.3835 0010966  18.9968 341.1672 15.15513987441471
PAZ                     
1 43215U 18020A   26063.83751044  .00003278  00000+0  15921-3 0  9995
2 43215  97.4456  72.7074 0001805  87.9460 272.1981 15.19149468445165
GOES 17                 
1 43226U 18022A   26063.35114212 -.00000194  00000+0  00000+0 0  9999
2 43226   0.6680  87.5564 0002253 221.5500 249.8945  1.00270359 29370
LKW-4                   
1 43236U 18025A   26063.40506560  .00054785  00000+0  84253-3 0  9990
2 43236  97.6252 226.7782 0002799 321.9428  38.1627 15.54061338443713
ZHUHAI-1 OVS-02         
1 43440U 18040B   26063.85571238  .00008802  00000+0  37015-3 0  9990
2 43440  97.0492  87.3208 0001731 261.3160  98.7882 15.23617962436824
ZHUHAI-1 OHS-02         
1 43441U 18040C   26063.89462375  .00009946  00000+0  40877-3 0  9996
2 43441  97.0496  94.1917 0008157 233.6908 126.3578 15.24329997 98387
GAOFEN-6                
1 43484U 18048A   26063.84925745  .00000578  00000+0  89837-4 0  9993
2 43484  97.7885 130.3007 0012835 149.3143 210.8821 14.76584425417995
