[{"OBJECT_NAME":"SUPERVIEW-1 03","OBJECT_ID":"2018-002A","EPOCH":"2026-03-04T20:16:16.354272","MEAN_MOTION":15.35667359,"ECCENTRICITY":0.0050867,"INCLINATION":97.3176,"RA_OF_ASC_NODE":149.0953,"ARG_OF_PERICENTER":195.1336,"MEAN_ANOMALY":164.839,"EPHEMERIS_TYPE":0,"CLASSIFICATION_TYPE":"U","NORAD_CAT_ID":43099,"ELEMENT_SET_NO":999,"REV_AT_EPOCH":45233,"BSTAR":0.00069368,"MEAN_MOTION_DOT":0.00025076,"MEAN_MOTION_DDOT":0},{"OBJECT_NAME":"CARTOSAT-2F","OBJECT_ID":"2018-004A","EPOCH":"2026-03-04T19:32:26.519712","MEAN_MOTION":15.19206158,"ECCENTRICITY":5.06e-5,"INCLINATION":97.4172,"RA_OF_ASC_NODE":125.0615,"ARG_OF_PERICENTER":251.3316,"MEAN_ANOMALY":108.7864,"EPHEMERIS_TYPE":0,"CLASSIFICATION_TYPE":"U","NORAD_CAT_ID":43111,"ELEMENT_SET_NO":999,"REV_AT_EPOCH":45148,"BSTAR":0.00028561,"MEAN_MOTION_DOT":5.945e-5,"MEAN_MOTION_DDOT":0},{"OBJECT_NAME":"LKW-3","OBJECT_ID":"2018-006A","EPOCH":"2026-03-04T19:50:18.689280","MEAN_MOTION":15.32921342,"ECCENTRICITY":0.0002467,"INCLINATION":97.6468,"RA_OF_ASC_NODE":220.5722,"ARG_OF_PERICENTER":332.9983,"MEAN_ANOMALY":27.1129,"EPHEMERIS_TYPE":0,"CLASSIFICATION_TYPE":"U","NORAD_CAT_ID":43146,"ELEMENT_SET_NO":999,"REV_AT_EPOCH":45271,"BSTAR":0.00062194,"MEAN_MOTION_DOT":0.00019725,"MEAN_MOTION_DDOT":0},{"OBJECT_NAME":"ASNARO-2","OBJECT_ID":"2018-007A","EPOCH":"2026-03-04T19:27:28.973664","MEAN_MOTION":15.22427749,"ECCENTRICITY":0.0001766,"INCLINATION":97.4021,"RA_OF_ASC_NODE":72.3379,"ARG_OF_PERICENTER":91.6387,"MEAN_ANOMALY":268.5052,"EPHEMERIS_TYPE":0,"CLASSIFICATION_TYPE":"U","NORAD_CAT_ID":43152,"ELEMENT_SET_NO":999,"REV_AT_EPOCH":45153,"BSTAR":0.00056298,"MEAN_MOTION_DOT":0.0001296,"MEAN_MOTION_DDOT":0},{"OBJECT_NAME":"JILIN-1 07","OBJECT_ID":"2018-008E","EPOCH":"2026-03-04T18:38:30.196032","MEAN_MOTION":15.32860133,"ECCENTRICITY":0.001052,"INCLINATION":97.1871,"RA_OF_ASC_NODE":86.5695,"ARG_OF_PERICENTER":77.809,"MEAN_ANOMALY":282.433,"EPHEMERIS_TYPE":0,"CLASSIFICATION_TYPE":"U","NORAD_CAT_ID":43159,"ELEMENT_SET_NO":999,"REV_AT_EPOCH":44899,"BSTAR":0.00038601,"MEAN_MOTION_DOT":0.00012202,"MEAN_MOTION_DDOT":0},{"OBJECT_NAME":"JILIN-1 08","OBJECT_ID":"2018-008F","EPOCH":"2026-03-04T18:48:10.797984","MEAN_MOTION":15.32089655,"ECCENTRICITY":0.0008269,"INCLINATION":97.1897,"RA_OF_ASC_NODE":85.9855,"ARG_OF_PERICENTER":90.062,"MEAN_ANOMALY":270.157,"EPHEMERIS_TYPE":0,"CLASSIFICATION_TYPE":"U","NORAD_CAT_ID":43160,"ELEMENT_SET_NO":999,"REV_AT_EPOCH":44895,"BSTAR":0.00039729,"MEAN_MOTION_DOT":0.00012253,"MEAN_MOTION_DDOT":0},{"OBJECT_NAME":"LEMUR-2-KADI","OBJECT_ID":"2018-014E","EPOCH":"2026-03-04T07:01:49.414656","MEAN_MOTION":15.62943807,"ECCENTRICITY":9.104e-5,"INCLINATION":97.4717,"RA_OF_ASC_NODE":347.6548,"ARG_OF_PERICENTER":54.9438,"MEAN_ANOMALY":305.1905,"EPHEMERIS_TYPE":0,"CLASSIFICATION_TYPE":"U","NORAD_CAT_ID":43184,"ELEMENT_SET_NO":999,"REV_AT_EPOCH":44454,"BSTAR":0.0014120354,"MEAN_MOTION_DOT":0.00129411,"MEAN_MOTION_DDOT":0},{"OBJECT_NAME":"S-NET D","OBJECT_ID":"2018-014G","EPOCH":"2026-03-04T06:15:15.757920","MEAN_MOTION":15.15543403,"ECCENTRICITY":0.00094275,"INCLINATION":97.5446,"RA_OF_ASC_NODE":328.7457,"ARG_OF_PERICENTER":32.5537,"MEAN_ANOMALY":327.6275,"EPHEMERIS_TYPE":0,"CLASSIFICATION_TYPE":"U","NORAD_CAT_ID":43186,"ELEMENT_SET_NO":999,"REV_AT_EPOCH":44286,"BSTAR":0.00051471028,"MEAN_MOTION_DOT":9.708e-5,"MEAN_MOTION_DDOT":0},{"OBJECT_NAME":"S-NET B","OBJECT_ID":"2018-014H","EPOCH":"2026-03-04T06:28:52.999968","MEAN_MOTION":15.1551587,"ECCENTRICITY":0.00098931,"INCLINATION":97.5454,"RA_OF_ASC_NODE":328.7383,"ARG_OF_PERICENTER":27.5757,"MEAN_ANOMALY":332.5999,"EPHEMERIS_TYPE":0,"CLASSIFICATION_TYPE":"U","NORAD_CAT_ID":43187,"ELEMENT_SET_NO":999,"REV_AT_EPOCH":44286,"BSTAR":0.00053100099,"MEAN_MOTION_DOT":0.00010011,"MEAN_MOTION_DDOT":0},{"OBJECT_NAME":"S-NET A","OBJECT_ID":"2018-014J","EPOCH":"2026-03-04T06:14:21.401952","MEAN_MOTION":15.15549843,"ECCENTRICITY":0.0009847,"INCLINATION":97.5464,"RA_OF_ASC_NODE":328.9181,"ARG_OF_PERICENTER":28.6783,"MEAN_ANOMALY":331.4989,"EPHEMERIS_TYPE":0,"CLASSIFICATION_TYPE":"U","NORAD_CAT_ID":43188,"ELEMENT_SET_NO":999,"REV_AT_EPOCH":44286,"BSTAR":0.00050848478,"MEAN_MOTION_DOT":9.592e-5,"MEAN_MOTION_DDOT":0},{"OBJECT_NAME":"S-NET C","OBJECT_ID":"2018-014K","EPOCH":"2026-03-04T16:04:07.778208","MEAN_MOTION":15.15513987,"ECCENTRICITY":0.0010966,"INCLINATION":97.5477,"RA_OF_ASC_NODE":329.3835,"ARG_OF_PERICENTER":18.9968,"MEAN_ANOMALY":341.1672,"EPHEMERIS_TYPE":0,"CLASSIFICATION_TYPE":"U","NORAD_CAT_ID":43189,"ELEMENT_SET_NO":999,"REV_AT_EPOCH":44147,"BSTAR":0.00048343,"MEAN_MOTION_DOT":9.109e-5,"MEAN_MOTION_DDOT":0},{"OBJECT_NAME":"PAZ","OBJECT_ID":"2018-020A","EPOCH":"2026-03-04T20:06:00.902016","MEAN_MOTION":15.19149468,"ECCENTRICITY":0.0001805,"INCLINATION":97.4456,"RA_OF_ASC_NODE":72.7074,"ARG_OF_PERICENTER":87.946,"MEAN_ANOMALY":272.1981,"EPHEMERIS_TYPE":0,"CLASSIFICATION_TYPE":"U","NORAD_CAT_ID":43215,"ELEMENT_SET_NO":999,"REV_AT_EPOCH":44516,"BSTAR":0.00015921,"MEAN_MOTION_DOT":3.278e-5,"MEAN_MOTION_DDOT":0},{"OBJECT_NAME":"GOES 17","OBJECT_ID":"2018-022A","EPOCH":"2026-03-04T08:25:38.679168","MEAN_MOTION":1.00270359,"ECCENTRICITY":0.0002253,"INCLINATION":0.668,"RA_OF_ASC_NODE":87.5564,"ARG_OF_PERICENTER":221.55,"MEAN_ANOMALY":249.8945,"EPHEMERIS_TYPE":0,"CLASSIFICATION_TYPE":"U","NORAD_CAT_ID":43226,"ELEMENT_SET_NO":999,"REV_AT_EPOCH":2937,"BSTAR":0,"MEAN_MOTION_DOT":-1.94e-6,"MEAN_MOTION_DDOT":0},{"OBJECT_NAME":"LKW-4","OBJECT_ID":"2018-025A","EPOCH":"2026-03-04T09:43:17.667840","MEAN_MOTION":15.54061338,"ECCENTRICITY":0.00027998,"INCLINATION":97.6252,"RA_OF_ASC_NODE":226.7782,"ARG_OF_PERICENTER":321.9428,"MEAN_ANOMALY":38.1627,"EPHEMERIS_TYPE":0,"CLASSIFICATION_TYPE":"U","NORAD_CAT_ID":43236,"ELEMENT_SET_NO":999,"REV_AT_EPOCH":44371,"BSTAR":0.00084252808,"MEAN_MOTION_DOT":0.00054785,"MEAN_MOTION_DDOT":0},{"OBJECT_NAME":"ZHUHAI-1 OVS-02","OBJECT_ID":"2018-040B","EPOCH":"2026-03-04T20:32:13.549632","MEAN_MOTION":15.23617962,"ECCENTRICITY":0.0001731,"INCLINATION":97.0492,"RA_OF_ASC_NODE":87.3208,"ARG_OF_PERICENTER":261.316,"MEAN_ANOMALY":98.7882,"EPHEMERIS_TYPE":0,"CLASSIFICATION_TYPE":"U","NORAD_CAT_ID":43440,"ELEMENT_SET_NO":999,"REV_AT_EPOCH":43682,"BSTAR":0.00037015,"MEAN_MOTION_DOT":8.802e-5,"MEAN_MOTION_DDOT":0},{"OBJECT_NAME":"ZHUHAI-1 OHS-02","OBJECT_ID":"2018-040C","EPOCH":"2026-03-04T21:28:15.492000","MEAN_MOTION":15.24329997,"ECCENTRICITY":0.0008157,"INCLINATION":97.0496,"RA_OF_ASC_NODE":94.1917,"ARG_OF_PERICENTER":233.6908,"MEAN_ANOMALY":126.3578,"EPHEMERIS_TYPE":0,"CLASSIFICATION_TYPE":"U","NORAD_CAT_ID":43441,"ELEMENT_SET_NO":999,"REV_AT_EPOCH":9838,"BSTAR":0.00040877,"MEAN_MOTION_DOT":9.946e-5,"MEAN_MOTION_DDOT":0},{"OBJECT_NAME":"GAOFEN-6","OBJECT_ID":"2018-048A","EPOCH":"2026-03-04T20:22:55.843680","MEAN_MOTION":14.76584425,"ECCENTRICITY":0.0012835,"INCLINATION":97.7885,"RA_OF_ASC_NODE":130.3007,"ARG_OF_PERICENTER":149.3143,"MEAN_ANOMALY":210.8821,"EPHEMERIS_TYPE":0,"CLASSIFICATION_TYPE":"U","NORAD_CAT_ID":43484,"ELEMENT_SET_NO":999,"REV_AT_EPOCH":41799,"BSTAR":8.9837e-5,"MEAN_MOTION_DOT":5.78e-6,"MEAN_MOTION_DDOT":0}]
